CCSDS_OMM_VERS = 2.0
CREATION_DATE  = 
ORIGINATOR     = 

OBJECT_NAME    = ATLAS CENTAUR R/B
OBJECT_ID      = 1972-065B
CENTER_NAME    = EARTH
REF_FRAME      = TEME
TIME_SYSTEM    = UTC
MEAN_ELEMENT_THEORY = SGP/SGP4

EPOCH          = 2026-03-09T23:07:49.099872
MEAN_MOTION    = 14.77687610
ECCENTRICITY   = .00335028
INCLINATION    = 35.0017
RA_OF_ASC_NODE = 304.1483
ARG_OF_PERICENTER = 11.1121
MEAN_ANOMALY   = 349.0314

EPHEMERIS_TYPE = 0
CLASSIFICATION_TYPE = U
NORAD_CAT_ID   = 6155
ELEMENT_SET_NO = 999
REV_AT_EPOCH   = 84130
BSTAR          = .21464203E-3
MEAN_MOTION_DOT = .1553E-4
MEAN_MOTION_DDOT = 0

CCSDS_OMM_VERS = 2.0
CREATION_DATE  = 
ORIGINATOR     = 

OBJECT_NAME    = SL-8 R/B
OBJECT_ID      = 1975-112B
CENTER_NAME    = EARTH
REF_FRAME      = TEME
TIME_SYSTEM    = UTC
MEAN_ELEMENT_THEORY = SGP/SGP4

EPOCH          = 2026-03-09T22:05:26.016864
MEAN_MOTION    = 14.38203886
ECCENTRICITY   = .00144297
INCLINATION    = 74.0629
RA_OF_ASC_NODE = 18.4872
ARG_OF_PERICENTER = 111.6790
MEAN_ANOMALY   = 248.5902

EPHEMERIS_TYPE = 0
CLASSIFICATION_TYPE = U
NORAD_CAT_ID   = 8459
ELEMENT_SET_NO = 999
REV_AT_EPOCH   = 63190
BSTAR          = .11399235E-3
MEAN_MOTION_DOT = .321E-5
MEAN_MOTION_DDOT = 0

CCSDS_OMM_VERS = 2.0
CREATION_DATE  = 
ORIGINATOR     = 

OBJECT_NAME    = SL-3 R/B
OBJECT_ID      = 1977-057B
CENTER_NAME    = EARTH
REF_FRAME      = TEME
TIME_SYSTEM    = UTC
MEAN_ELEMENT_THEORY = SGP/SGP4

EPOCH          = 2026-03-09T21:55:03.006336
MEAN_MOTION    = 15.45501116
ECCENTRICITY   = .00061593
INCLINATION    = 97.5777
RA_OF_ASC_NODE = 240.8437
ARG_OF_PERICENTER = 284.2853
MEAN_ANOMALY   = 75.7711

EPHEMERIS_TYPE = 0
CLASSIFICATION_TYPE = U
NORAD_CAT_ID   = 10114
ELEMENT_SET_NO = 999
REV_AT_EPOCH   = 66836
BSTAR          = .32201204E-3
MEAN_MOTION_DOT = .15369E-3
MEAN_MOTION_DDOT = 0

CCSDS_OMM_VERS = 2.0
CREATION_DATE  = 
ORIGINATOR     = 

OBJECT_NAME    = SEASAT 1
OBJECT_ID      = 1978-064A
CENTER_NAME    = EARTH
REF_FRAME      = TEME
TIME_SYSTEM    = UTC
MEAN_ELEMENT_THEORY = SGP/SGP4

EPOCH          = 2026-03-09T23:31:39.819072
MEAN_MOTION    = 14.46160523
ECCENTRICITY   = .00023159
INCLINATION    = 108.0108
RA_OF_ASC_NODE = 126.1097
ARG_OF_PERICENTER = 285.8118
MEAN_ANOMALY   = 74.2772

EPHEMERIS_TYPE = 0
CLASSIFICATION_TYPE = U
NORAD_CAT_ID   = 10967
ELEMENT_SET_NO = 999
REV_AT_EPOCH   = 50655
BSTAR          = .12516922E-3
MEAN_MOTION_DOT = .31E-5
MEAN_MOTION_DDOT = 0

CCSDS_OMM_VERS = 2.0
CREATION_DATE  = 
ORIGINATOR     = 

OBJECT_NAME    = SL-14 R/B
OBJECT_ID      = 1979-011B
CENTER_NAME    = EARTH
REF_FRAME      = TEME
TIME_SYSTEM    = UTC
MEAN_ELEMENT_THEORY = SGP/SGP4

EPOCH          = 2026-03-09T13:55:54.072480
MEAN_MOTION    = 14.91907955
ECCENTRICITY   = .0017409
INCLINATION    = 82.5209
RA_OF_ASC_NODE = 96.6746
ARG_OF_PERICENTER = 60.8949
MEAN_ANOMALY   = 299.4011

EPHEMERIS_TYPE = 0
CLASSIFICATION_TYPE = U
NORAD_CAT_ID   = 11267
ELEMENT_SET_NO = 999
REV_AT_EPOCH   = 52876
BSTAR          = .67656E-4
MEAN_MOTION_DOT = .711E-5
MEAN_MOTION_DDOT = 0

CCSDS_OMM_VERS = 2.0
CREATION_DATE  = 
ORIGINATOR     = 

OBJECT_NAME    = SL-8 R/B
OBJECT_ID      = 1979-089B
CENTER_NAME    = EARTH
REF_FRAME      = TEME
TIME_SYSTEM    = UTC
MEAN_ELEMENT_THEORY = SGP/SGP4

EPOCH          = 2026-03-09T12:53:53.849184
MEAN_MOTION    = 14.42350739
ECCENTRICITY   = .00171642
INCLINATION    = 74.0668
RA_OF_ASC_NODE = 91.3256
ARG_OF_PERICENTER = 264.0643
MEAN_ANOMALY   = 95.8558

EPHEMERIS_TYPE = 0
CLASSIFICATION_TYPE = U
NORAD_CAT_ID   = 11574
ELEMENT_SET_NO = 999
REV_AT_EPOCH   = 43608
BSTAR          = .11654827E-3
MEAN_MOTION_DOT = .359E-5
MEAN_MOTION_DDOT = 0

CCSDS_OMM_VERS = 2.0
CREATION_DATE  = 
ORIGINATOR     = 

OBJECT_NAME    = SL-14 R/B
OBJECT_ID      = 1980-005B
CENTER_NAME    = EARTH
REF_FRAME      = TEME
TIME_SYSTEM    = UTC
MEAN_ELEMENT_THEORY = SGP/SGP4

EPOCH          = 2026-03-09T17:27:50.322528
MEAN_MOTION    = 14.90930453
ECCENTRICITY   = .00161932
INCLINATION    = 82.5144
RA_OF_ASC_NODE = 307.2004
ARG_OF_PERICENTER = 158.1149
MEAN_ANOMALY   = 202.0766

EPHEMERIS_TYPE = 0
CLASSIFICATION_TYPE = U
NORAD_CAT_ID   = 11672
ELEMENT_SET_NO = 999
REV_AT_EPOCH   = 47649
BSTAR          = .66729124E-4
MEAN_MOTION_DOT = .685E-5
MEAN_MOTION_DDOT = 0

CCSDS_OMM_VERS = 2.0
CREATION_DATE  = 
ORIGINATOR     = 

OBJECT_NAME    = SL-8 R/B
OBJECT_ID      = 1981-003B
CENTER_NAME    = EARTH
REF_FRAME      = TEME
TIME_SYSTEM    = UTC
MEAN_ELEMENT_THEORY = SGP/SGP4

EPOCH          = 2026-03-09T16:04:15.381408
MEAN_MOTION    = 15.10973620
ECCENTRICITY   = .02621852
INCLINATION    = 82.9386
RA_OF_ASC_NODE = 290.0424
ARG_OF_PERICENTER = 178.7086
MEAN_ANOMALY   = 181.4887

EPHEMERIS_TYPE = 0
CLASSIFICATION_TYPE = U
NORAD_CAT_ID   = 12139
ELEMENT_SET_NO = 999
REV_AT_EPOCH   = 31467
BSTAR          = .54115758E-3
MEAN_MOTION_DOT = .21105E-3
MEAN_MOTION_DDOT = 0

CCSDS_OMM_VERS = 2.0
CREATION_DATE  = 
ORIGINATOR     = 

OBJECT_NAME    = SL-3 R/B
OBJECT_ID      = 1981-046B
CENTER_NAME    = EARTH
REF_FRAME      = TEME
TIME_SYSTEM    = UTC
MEAN_ELEMENT_THEORY = SGP/SGP4

EPOCH          = 2026-03-09T21:56:30.935616
MEAN_MOTION    = 15.42002593
ECCENTRICITY   = .00195542
INCLINATION    = 81.2298
RA_OF_ASC_NODE = 289.4744
ARG_OF_PERICENTER = 21.5372
MEAN_ANOMALY   = 338.6689

EPHEMERIS_TYPE = 0
CLASSIFICATION_TYPE = U
NORAD_CAT_ID   = 12465
ELEMENT_SET_NO = 999
REV_AT_EPOCH   = 43846
BSTAR          = .31641117E-3
MEAN_MOTION_DOT = .13615E-3
MEAN_MOTION_DDOT = 0

CCSDS_OMM_VERS = 2.0
CREATION_DATE  = 
ORIGINATOR     = 

OBJECT_NAME    = SL-3 R/B
OBJECT_ID      = 1981-103B
CENTER_NAME    = EARTH
REF_FRAME      = TEME
TIME_SYSTEM    = UTC
MEAN_ELEMENT_THEORY = SGP/SGP4

EPOCH          = 2026-03-09T21:41:31.338816
MEAN_MOTION    = 15.21379038
ECCENTRICITY   = .00124427
INCLINATION    = 81.1587
RA_OF_ASC_NODE = 213.1807
ARG_OF_PERICENTER = 286.2286
MEAN_ANOMALY   = 73.7576

EPHEMERIS_TYPE = 0
CLASSIFICATION_TYPE = U
NORAD_CAT_ID   = 12904
ELEMENT_SET_NO = 999
REV_AT_EPOCH   = 97326
BSTAR          = .27179641E-3
MEAN_MOTION_DOT = .6129E-4
MEAN_MOTION_DDOT = 0

CCSDS_OMM_VERS = 2.0
CREATION_DATE  = 
ORIGINATOR     = 

OBJECT_NAME    = SL-3 R/B
OBJECT_ID      = 1982-013B
CENTER_NAME    = EARTH
REF_FRAME      = TEME
TIME_SYSTEM    = UTC
MEAN_ELEMENT_THEORY = SGP/SGP4

EPOCH          = 2026-03-09T21:53:00.854016
MEAN_MOTION    = 15.22021316
ECCENTRICITY   = .00226549
INCLINATION    = 81.1762
RA_OF_ASC_NODE = 160.5103
ARG_OF_PERICENTER = 176.7670
MEAN_ANOMALY   = 183.3713

EPHEMERIS_TYPE = 0
CLASSIFICATION_TYPE = U
NORAD_CAT_ID   = 13068
ELEMENT_SET_NO = 999
REV_AT_EPOCH   = 40438
BSTAR          = .24250009E-3
MEAN_MOTION_DOT = .5603E-4
MEAN_MOTION_DDOT = 0

CCSDS_OMM_VERS = 2.0
CREATION_DATE  = 
ORIGINATOR     = 

OBJECT_NAME    = SL-3 R/B
OBJECT_ID      = 1982-039B
CENTER_NAME    = EARTH
REF_FRAME      = TEME
TIME_SYSTEM    = UTC
MEAN_ELEMENT_THEORY = SGP/SGP4

EPOCH          = 2026-03-09T22:07:28.779168
MEAN_MOTION    = 15.10083319
ECCENTRICITY   = .00297187
INCLINATION    = 81.1583
RA_OF_ASC_NODE = 215.6942
ARG_OF_PERICENTER = 323.7089
MEAN_ANOMALY   = 36.2120

EPHEMERIS_TYPE = 0
CLASSIFICATION_TYPE = U
NORAD_CAT_ID   = 13154
ELEMENT_SET_NO = 999
REV_AT_EPOCH   = 38167
BSTAR          = .20843464E-3
MEAN_MOTION_DOT = .3451E-4
MEAN_MOTION_DDOT = 0

