ATLAS CENTAUR R/B       
1 06155U 72065B   26068.96376273  .00001553  00000+0  21464-3 0  9995
2 06155  35.0017 304.1483 0033502  11.1121 349.0314 14.77687610841305
SL-8 R/B                
1 08459U 75112B   26068.92044001  .00000321  00000+0  11399-3 0  9995
2 08459  74.0629  18.4872 0014429 111.6790 248.5902 14.38203886631903
SL-3 R/B                
1 10114U 77057B   26068.91322924  .00015369  00000+0  32201-3 0  9991
2 10114  97.5777 240.8437 0006159 284.2853  75.7711 15.45501116668368
SEASAT 1                
1 10967U 78064A   26068.98032198  .00000310  00000+0  12517-3 0  9992
2 10967 108.0108 126.1097 0002315 285.8118  74.2772 14.46160523506555
SL-14 R/B               
1 11267U 79011B   26068.58048695  .00000711  00000+0  67656-4 0  9994
2 11267  82.5209  96.6746 0017409  60.8949 299.4011 14.91907955528764
SL-8 R/B                
1 11574U 79089B   26068.53742881  .00000359  00000+0  11655-3 0  9998
2 11574  74.0668  91.3256 0017164 264.0643  95.8558 14.42350739436080
SL-14 R/B               
1 11672U 80005B   26068.72766577  .00000685  00000+0  66729-4 0  9991
2 11672  82.5144 307.2004 0016193 158.1149 202.0766 14.90930453476499
SL-8 R/B                
1 12139U 81003B   26068.66962247  .00021105  00000+0  54116-3 0  9990
2 12139  82.9386 290.0424 0262185 178.7086 181.4887 15.10973620314678
SL-3 R/B                
1 12465U 81046B   26068.91424694  .00013615  00000+0  31641-3 0  9991
2 12465  81.2298 289.4744 0019554  21.5372 338.6689 15.42002593438461
SL-3 R/B                
1 12904U 81103B   26068.90383494  .00006129  00000+0  27180-3 0  9999
2 12904  81.1587 213.1807 0012442 286.2286  73.7576 15.21379038973268
SL-3 R/B                
1 13068U 82013B   26068.91181544  .00005603  00000+0  24250-3 0  9996
2 13068  81.1762 160.5103 0022654 176.7670 183.3713 15.22021316404382
SL-3 R/B                
1 13154U 82039B   26068.92186087  .00003451  00000+0  20843-3 0  9991
2 13154  81.1583 215.6942 0029718 323.7089  36.2120 15.10083319381670
